{"type": "FeatureCollection", "features": [ {"type": "Feature", "properties": {"norad_id": 44476, "name": "INTELSAT 39 (IS-39)", "group": "intelsat", "lat": -0.017559276041379787, "lon": -57.58382974872656, "alt_km": 35789.543397664704, "timestamp": "2025-12-08T10:52:02.617451+00:00", "meta": {"OBJECT_NAME": "INTELSAT 39 (IS-39)", "OBJECT_ID": "2019-049B", "EPOCH": "2025-12-07T22:49:38.694720", "MEAN_MOTION": 1.00269946, "ECCENTRICITY": 8.524e-05, "INCLINATION": 0.017, "RA_OF_ASC_NODE": 323.2654, "ARG_OF_PERICENTER": 192.9818, "MEAN_ANOMALY": 325.0777, "EPHEMERIS_TYPE": 0, "CLASSIFICATION_TYPE": "U", "NORAD_CAT_ID": 44476, "ELEMENT_SET_NO": 999, "REV_AT_EPOCH": 2321, "BSTAR": 0, "MEAN_MOTION_DOT": 3.7e-07, "MEAN_MOTION_DDOT": 0}, "tle": {"line1": "1 44476U 19049B   25341.95114230  .00000037  00000+0  00000+0 0  9996", "line2": "2 44476   0.0170 323.2654 0000852 192.9818 325.0777  1.00269946 23219"}}, "geometry": {"type": "Point", "coordinates": [-57.58382974872656, -0.017559276041379787]}}, {"type": "Feature", "properties": {"norad_id": 46114, "name": "GALAXY 30 (G-30)", "group": "intelsat", "lat": 0.028721413623901484, "lon": 115.4425279557573, "alt_km": 35794.29088134219, "timestamp": "2025-12-08T10:52:02.617463+00:00", "meta": {"OBJECT_NAME": "GALAXY 30 (G-30)", "OBJECT_ID": "2020-056C", "EPOCH": "2025-12-07T16:27:51.213024", "MEAN_MOTION": 1.00270815, "ECCENTRICITY": 0.00024466, "INCLINATION": 0.0172, "RA_OF_ASC_NODE": 342.6462, "ARG_OF_PERICENTER": 273.2329, "MEAN_ANOMALY": 302.7854, "EPHEMERIS_TYPE": 0, "CLASSIFICATION_TYPE": "U", "NORAD_CAT_ID": 46114, "ELEMENT_SET_NO": 999, "REV_AT_EPOCH": 1937, "BSTAR": 0, "MEAN_MOTION_DOT": 4e-07, "MEAN_MOTION_DDOT": 0}, "tle": {"line1": "1 46114U 20056C   25341.68600941  .00000040  00000+0  00000+0 0  9990", "line2": "2 46114   0.0172 342.6462 0002446 273.2329 302.7854  1.00270815 19372"}}, "geometry": {"type": "Point", "coordinates": [115.4425279557573, 0.028721413623901484]}}, {"type": "Feature", "properties": {"norad_id": 54026, "name": "GALAXY 33 (G-33)", "group": "intelsat", "lat": 0.015882165570671007, "lon": 107.44878280348877, "alt_km": 35793.65542653515, "timestamp": "2025-12-08T10:52:02.617474+00:00", "meta": {"OBJECT_NAME": "GALAXY 33 (G-33)", "OBJECT_ID": "2022-128A", "EPOCH": "2025-12-07T21:33:35.476992", "MEAN_MOTION": 1.00271369, "ECCENTRICITY": 0.00022683, "INCLINATION": 0.0182, "RA_OF_ASC_NODE": 298.512, "ARG_OF_PERICENTER": 310.2549, "MEAN_ANOMALY": 18.5442, "EPHEMERIS_TYPE": 0, "CLASSIFICATION_TYPE": "U", "NORAD_CAT_ID": 54026, "ELEMENT_SET_NO": 999, "REV_AT_EPOCH": 1182, "BSTAR": 0, "MEAN_MOTION_DOT": 8.2e-07, "MEAN_MOTION_DDOT": 0}, "tle": {"line1": "1 54026U 22128A   25341.89832728  .00000082  00000+0  00000+0 0  9992", "line2": "2 54026   0.0182 298.5120 0002268 310.2549  18.5442  1.00271369 11824"}}, "geometry": {"type": "Point", "coordinates": [107.44878280348877, 0.015882165570671007]}}, {"type": "Feature", "properties": {"norad_id": 54027, "name": "GALAXY 34 (G-34)", "group": "intelsat", "lat": 0.024567546178893243, "lon": 111.51497774501264, "alt_km": 35790.20337984993, "timestamp": "2025-12-08T10:52:02.617486+00:00", "meta": {"OBJECT_NAME": "GALAXY 34 (G-34)", "OBJECT_ID": "2022-128B", "EPOCH": "2025-12-07T16:26:43.821024", "MEAN_MOTION": 1.00269803, "ECCENTRICITY": 0.00013497, "INCLINATION": 0.0284, "RA_OF_ASC_NODE": 314.0489, "ARG_OF_PERICENTER": 286.7682, "MEAN_ANOMALY": 313.6351, "EPHEMERIS_TYPE": 0, "CLASSIFICATION_TYPE": "U", "NORAD_CAT_ID": 54027, "ELEMENT_SET_NO": 999, "REV_AT_EPOCH": 1199, "BSTAR": 0, "MEAN_MOTION_DOT": 0, "MEAN_MOTION_DDOT": 0}, "tle": {"line1": "1 54027U 22128B   25341.68522941  .00000000  00000+0  00000+0 0  9993", "line2": "2 54027   0.0284 314.0489 0001349 286.7682 313.6351  1.00269803 11990"}}, "geometry": {"type": "Point", "coordinates": [111.51497774501264, 0.024567546178893243]}}, {"type": "Feature", "properties": {"norad_id": 54243, "name": "GALAXY 31 (G-31)", "group": "intelsat", "lat": 0.020142238873440573, "lon": 119.45581451136731, "alt_km": 35793.27739851881, "timestamp": "2025-12-08T10:52:02.617498+00:00", "meta": {"OBJECT_NAME": "GALAXY 31 (G-31)", "OBJECT_ID": "2022-153A", "EPOCH": "2025-12-07T16:28:58.605888", "MEAN_MOTION": 1.00271232, "ECCENTRICITY": 0.00019527, "INCLINATION": 0.0235, "RA_OF_ASC_NODE": 84.5789, "ARG_OF_PERICENTER": 183.9278, "MEAN_ANOMALY": 294.4451, "EPHEMERIS_TYPE": 0, "CLASSIFICATION_TYPE": "U", "NORAD_CAT_ID": 54243, "ELEMENT_SET_NO": 999, "REV_AT_EPOCH": 521, "BSTAR": 0, "MEAN_MOTION_DOT": 1.7e-07, "MEAN_MOTION_DDOT": 0}, "tle": {"line1": "1 54243U 22153A   25341.68678942  .00000017  00000+0  00000+0 0  9992", "line2": "2 54243   0.0235  84.5789 0001952 183.9278 294.4451  1.00271232  5211"}}, "geometry": {"type": "Point", "coordinates": [119.45581451136731, 0.020142238873440573]}}, {"type": "Feature", "properties": {"norad_id": 54244, "name": "GALAXY 32 (G-32)", "group": "intelsat", "lat": 0.00353386839220417, "lon": 149.45221813479407, "alt_km": 35796.92186111049, "timestamp": "2025-12-08T10:52:02.617509+00:00", "meta": {"OBJECT_NAME": "GALAXY 32 (G-32)", "OBJECT_ID": "2022-153B", "EPOCH": "2025-12-07T21:45:41.816736", "MEAN_MOTION": 1.0027061, "ECCENTRICITY": 0.00026981, "INCLINATION": 0.0101, "RA_OF_ASC_NODE": 332.0017, "ARG_OF_PERICENTER": 334.9102, "MEAN_ANOMALY": 5.4348, "EPHEMERIS_TYPE": 0, "CLASSIFICATION_TYPE": "U", "NORAD_CAT_ID": 54244, "ELEMENT_SET_NO": 999, "REV_AT_EPOCH": 1122, "BSTAR": 0, "MEAN_MOTION_DOT": -1.71e-06, "MEAN_MOTION_DDOT": 0}, "tle": {"line1": "1 54244U 22153B   25341.90673399 -.00000171  00000+0  00000+0 0  9991", "line2": "2 54244   0.0101 332.0017 0002698 334.9102   5.4348  1.00270610 11223"}}, "geometry": {"type": "Point", "coordinates": [149.45221813479407, 0.00353386839220417]}}, {"type": "Feature", "properties": {"norad_id": 54741, "name": "GALAXY 35 (G-35)", "group": "intelsat", "lat": 0.013644233720401178, "lon": 147.34971883857315, "alt_km": 35791.29522963539, "timestamp": "2025-12-08T10:52:02.617521+00:00", "meta": {"OBJECT_NAME": "GALAXY 35 (G-35)", "OBJECT_ID": "2022-170A", "EPOCH": "2025-12-07T21:45:11.865312", "MEAN_MOTION": 1.00271061, "ECCENTRICITY": 0.00026945, "INCLINATION": 0.0126, "RA_OF_ASC_NODE": 59.6803, "ARG_OF_PERICENTER": 203.6228, "MEAN_ANOMALY": 46.8309, "EPHEMERIS_TYPE": 0, "CLASSIFICATION_TYPE": "U", "NORAD_CAT_ID": 54741, "ELEMENT_SET_NO": 999, "REV_AT_EPOCH": 1097, "BSTAR": 0, "MEAN_MOTION_DOT": -1.59e-06, "MEAN_MOTION_DDOT": 0}, "tle": {"line1": "1 54741U 22170A   25341.90638733 -.00000159  00000+0  00000+0 0  9991", "line2": "2 54741   0.0126  59.6803 0002694 203.6228  46.8309  1.00271061 10972"}}, "geometry": {"type": "Point", "coordinates": [147.34971883857315, 0.013644233720401178]}}, {"type": "Feature", "properties": {"norad_id": 54742, "name": "GALAXY 36 (G-36)", "group": "intelsat", "lat": 0.011964125598502549, "lon": 151.4575569443914, "alt_km": 35787.907709098356, "timestamp": "2025-12-08T10:52:02.617532+00:00", "meta": {"OBJECT_NAME": "GALAXY 36 (G-36)", "OBJECT_ID": "2022-170B", "EPOCH": "2025-12-07T21:46:19.257312", "MEAN_MOTION": 1.00270916, "ECCENTRICITY": 5.948e-05, "INCLINATION": 0.0084, "RA_OF_ASC_NODE": 7.0465, "ARG_OF_PERICENTER": 272.6879, "MEAN_ANOMALY": 34.7668, "EPHEMERIS_TYPE": 0, "CLASSIFICATION_TYPE": "U", "NORAD_CAT_ID": 54742, "ELEMENT_SET_NO": 999, "REV_AT_EPOCH": 1085, "BSTAR": 0, "MEAN_MOTION_DOT": -1.82e-06, "MEAN_MOTION_DDOT": 0}, "tle": {"line1": "1 54742U 22170B   25341.90716733 -.00000182  00000+0  00000+0 0  9995", "line2": "2 54742   0.0084   7.0465 0000594 272.6879  34.7668  1.00270916 10851"}}, "geometry": {"type": "Point", "coordinates": [151.4575569443914, 0.011964125598502549]}}, {"type": "Feature", "properties": {"norad_id": 57493, "name": "GALAXY 37 (G-37)", "group": "intelsat", "lat": 0.025709148820023574, "lon": 113.45298302367411, "alt_km": 35794.83062403701, "timestamp": "2025-12-08T10:52:02.617544+00:00", "meta": {"OBJECT_NAME": "GALAXY 37 (G-37)", "OBJECT_ID": "2023-112A", "EPOCH": "2025-12-07T21:35:12.821280", "MEAN_MOTION": 1.00270987, "ECCENTRICITY": 0.00023815, "INCLINATION": 0.0097, "RA_OF_ASC_NODE": 350.9346, "ARG_OF_PERICENTER": 270.6921, "MEAN_ANOMALY": 12.0943, "EPHEMERIS_TYPE": 0, "CLASSIFICATION_TYPE": "U", "NORAD_CAT_ID": 57493, "ELEMENT_SET_NO": 999, "REV_AT_EPOCH": 862, "BSTAR": 0, "MEAN_MOTION_DOT": 5.1e-07, "MEAN_MOTION_DDOT": 0}, "tle": {"line1": "1 57493U 23112A   25341.89945395  .00000051  00000+0  00000+0 0  9998", "line2": "2 57493   0.0097 350.9346 0002381 270.6921  12.0943  1.00270987  8626"}}, "geometry": {"type": "Point", "coordinates": [113.45298302367411, 0.025709148820023574]}}]}